STARLINK-30252          
1 57607U 23119F   26068.04029622  .00000226  00000+0  18088-4 0  9996
2 57607  42.9989  70.2401 0001217 279.3430  80.7284 15.26747761143161
HAWK-11C                
1 62381U 24247E   26068.51221537  .00009223  00000+0  33290-3 0  9992
2 62381  45.0045 114.8762 0005900 329.7040  30.3502 15.28848020 67743
