[{"OBJECT_NAME":"STARLINK-30252","OBJECT_ID":"2023-119F","EPOCH":"2026-03-09T00:58:01.593408","MEAN_MOTION":15.26747761,"ECCENTRICITY":0.00012173,"INCLINATION":42.9989,"RA_OF_ASC_NODE":70.2401,"ARG_OF_PERICENTER":279.343,"MEAN_ANOMALY":80.7284,"EPHEMERIS_TYPE":0,"CLASSIFICATION_TYPE":"U","NORAD_CAT_ID":57607,"ELEMENT_SET_NO":999,"REV_AT_EPOCH":14316,"BSTAR":1.8088466e-5,"MEAN_MOTION_DOT":2.26e-6,"MEAN_MOTION_DDOT":0},{"OBJECT_NAME":"HAWK-11C","OBJECT_ID":"2024-247E","EPOCH":"2026-03-09T12:17:35.407968","MEAN_MOTION":15.2884802,"ECCENTRICITY":0.00059001,"INCLINATION":45.0045,"RA_OF_ASC_NODE":114.8762,"ARG_OF_PERICENTER":329.704,"MEAN_ANOMALY":30.3502,"EPHEMERIS_TYPE":0,"CLASSIFICATION_TYPE":"U","NORAD_CAT_ID":62381,"ELEMENT_SET_NO":999,"REV_AT_EPOCH":6774,"BSTAR":0.00033290115,"MEAN_MOTION_DOT":9.223e-5,"MEAN_MOTION_DDOT":0}]
